start=new Date('2022-11-12T00:00:00.000Z').valueOf();
sats=[{"MEAN_MOTION_DOT":"0.00007866","LAUNCH_DATE":"2022-02-21","REV_AT_EPOCH":"4032","TLE_LINE2":"2 51728  53.2195   8.0784 0002446  38.4203 321.6963 15.08830233 40325","CLASSIFICATION_TYPE":"U","REF_FRAME":"TEME","EPOCH":"2022-11-11T21:23:13.792704","MEAN_MOTION_DDOT":"0.0000000000000","SEMIMAJOR_AXIS":"6917.910","APOAPSIS":"541.467","SITE":"AFETR","OBJECT_TYPE":"PAYLOAD","ARG_OF_PERICENTER":"38.4203","OBJECT_ID":"2022-016Q","BSTAR":"0.00051189000000","FILE":"3651775","PERIAPSIS":"538.083","TIME_SYSTEM":"UTC","MEAN_MOTION":"15.08830233","DECAY_DATE":null,"INCLINATION":"53.2195","COUNTRY_CODE":"US","GP_ID":"217492807","NORAD_CAT_ID":"51728","EPHEMERIS_TYPE":"0","CENTER_NAME":"EARTH","PERIOD":"95.438","MEAN_ANOMALY":"321.6963","ELEMENT_SET_NO":"999","MEAN_ELEMENT_THEORY":"SGP4","TLE_LINE1":"1 51728U 22016Q   22315.89113186  .00007866  00000-0  51189-3 0  9998","OBJECT_NAME":"STARLINK-3448","RA_OF_ASC_NODE":"8.0784","ECCENTRICITY":"0.00024460","RCS_SIZE":"LARGE"},{"ECCENTRICITY":"0.00026320","RA_OF_ASC_NODE":"9.2159","RCS_SIZE":"LARGE","MEAN_ELEMENT_THEORY":"SGP4","TLE_LINE1":"1 51729U 22016R   22315.63719593  .00000044  00000-0  20866-4 0  9995","OBJECT_NAME":"STARLINK-3523","PERIOD":"95.438","MEAN_ANOMALY":"330.5214","ELEMENT_SET_NO":"999","EPHEMERIS_TYPE":"0","CENTER_NAME":"EARTH","GP_ID":"217493053","NORAD_CAT_ID":"51729","INCLINATION":"53.2203","DECAY_DATE":null,"COUNTRY_CODE":"US","MEAN_MOTION":"15.08838211","PERIAPSIS":"537.930","TIME_SYSTEM":"UTC","FILE":"3651775","BSTAR":"0.00002086600000","OBJECT_TYPE":"PAYLOAD","ARG_OF_PERICENTER":"29.5927","OBJECT_ID":"2022-016R","APOAPSIS":"541.572","SITE":"AFETR","EPOCH":"2022-11-11T15:17:33.728352","MEAN_MOTION_DDOT":"0.0000000000000","SEMIMAJOR_AXIS":"6917.886","CLASSIFICATION_TYPE":"U","REF_FRAME":"TEME","TLE_LINE2":"2 51729  53.2203   9.2159 0002632  29.5927 330.5214 15.08838211 40283","REV_AT_EPOCH":"4028","MEAN_MOTION_DOT":"0.00000044","LAUNCH_DATE":"2022-02-21"},{"ARG_OF_PERICENTER":"30.5059","OBJECT_ID":"2022-016S","OBJECT_TYPE":"PAYLOAD","SITE":"AFETR","APOAPSIS":"541.326","SEMIMAJOR_AXIS":"6917.904","MEAN_MOTION_DDOT":"0.0000000000000","EPOCH":"2022-11-11T13:15:42.349536","REF_FRAME":"TEME","CLASSIFICATION_TYPE":"U","TLE_LINE2":"2 51730  53.2155   9.6097 0002251  30.5059 329.6064 15.08832417 40274","REV_AT_EPOCH":"4027","LAUNCH_DATE":"2022-02-21","MEAN_MOTION_DOT":"0.00020463","RCS_SIZE":"LARGE","ECCENTRICITY":"0.00022510","RA_OF_ASC_NODE":"9.6097","OBJECT_NAME":"STARLINK-3530","MEAN_ELEMENT_THEORY":"SGP4","TLE_LINE1":"1 51730U 22016S   22315.55257349  .00020463  00000-0  13003-2 0  9994","ELEMENT_SET_NO":"999","MEAN_ANOMALY":"329.6064","PERIOD":"95.438","CENTER_NAME":"EARTH","EPHEMERIS_TYPE":"0","NORAD_CAT_ID":"51730","GP_ID":"217493809","COUNTRY_CODE":"US","DECAY_DATE":null,"INCLINATION":"53.2155","PERIAPSIS":"538.211","MEAN_MOTION":"15.08832417","TIME_SYSTEM":"UTC","BSTAR":"0.00130030000000","FILE":"3651775"},{"RA_OF_ASC_NODE":"9.5520","ECCENTRICITY":"0.00023780","RCS_SIZE":"LARGE","TLE_LINE1":"1 51731U 22016T   22315.56361817  .00011400  00000-0  73342-3 0  9996","MEAN_ELEMENT_THEORY":"SGP4","OBJECT_NAME":"STARLINK-3514","MEAN_ANOMALY":"319.9406","PERIOD":"95.438","ELEMENT_SET_NO":"999","EPHEMERIS_TYPE":"0","CENTER_NAME":"EARTH","NORAD_CAT_ID":"51731","GP_ID":"217493528","DECAY_DATE":null,"INCLINATION":"53.2173","COUNTRY_CODE":"US","PERIAPSIS":"538.134","MEAN_MOTION":"15.08828995","TIME_SYSTEM":"UTC","FILE":"3651775","BSTAR":"0.00073342000000","ARG_OF_PERICENTER":"40.1761","OBJECT_ID":"2022-016T","OBJECT_TYPE":"PAYLOAD","APOAPSIS":"541.424","SITE":"AFETR","EPOCH":"2022-11-11T13:31:36.609888","SEMIMAJOR_AXIS":"6917.914","MEAN_MOTION_DDOT":"0.0000000000000","CLASSIFICATION_TYPE":"U","REF_FRAME":"TEME","TLE_LINE2":"2 51731  53.2173   9.5520 0002378  40.1761 319.9406 15.08828995 40270","REV_AT_EPOCH":"4027","MEAN_MOTION_DOT":"0.00011400","LAUNCH_DATE":"2022-02-21"},{"GP_ID":"217492308","NORAD_CAT_ID":"51732","DECAY_DATE":null,"INCLINATION":"53.2168","COUNTRY_CODE":"US","PERIAPSIS":"538.049","MEAN_MOTION":"15.08852351","TIME_SYSTEM":"UTC","FILE":"3651775","BSTAR":"0.00072157000000","RA_OF_ASC_NODE":"8.1403","ECCENTRICITY":"0.00023980","RCS_SIZE":"LARGE","TLE_LINE1":"1 51732U 22016U   22315.88007648  .00011218  00000-0  72157-3 0  9991","MEAN_ELEMENT_THEORY":"SGP4","OBJECT_NAME":"STARLINK-3518","PERIOD":"95.437","MEAN_ANOMALY":"325.7990","ELEMENT_SET_NO":"999","EPHEMERIS_TYPE":"0","CENTER_NAME":"EARTH","TLE_LINE2":"2 51732  53.2168   8.1403 0002398  34.3157 325.7990 15.08852351 41464","REV_AT_EPOCH":"4146","MEAN_MOTION_DOT":"0.00011218","LAUNCH_DATE":"2022-02-21","OBJECT_TYPE":"PAYLOAD","OBJECT_ID":"2022-016U","ARG_OF_PERICENTER":"34.3157","APOAPSIS":"541.367","SITE":"AFETR","EPOCH":"2022-11-11T21:07:18.607872","MEAN_MOTION_DDOT":"0.0000000000000","SEMIMAJOR_AXIS":"6917.843","CLASSIFICATION_TYPE":"U","REF_FRAME":"TEME"},{"MEAN_MOTION_DOT":"0.00003752","LAUNCH_DATE":"2022-02-21","TLE_LINE2":"2 51733  53.2180   9.5831 0002459  33.1369 326.9776 15.08834071 40271","REV_AT_EPOCH":"4027","EPOCH":"2022-11-11T13:20:59.756352","MEAN_MOTION_DDOT":"0.0000000000000","SEMIMAJOR_AXIS":"6917.899","CLASSIFICATION_TYPE":"U","REF_FRAME":"TEME","OBJECT_TYPE":"PAYLOAD","ARG_OF_PERICENTER":"33.1369","OBJECT_ID":"2022-016V","APOAPSIS":"541.465","SITE":"AFETR","PERIAPSIS":"538.062","TIME_SYSTEM":"UTC","MEAN_MOTION":"15.08834071","BSTAR":"0.00025373000000","FILE":"3651775","GP_ID":"217492554","NORAD_CAT_ID":"51733","INCLINATION":"53.2180","DECAY_DATE":null,"COUNTRY_CODE":"US","PERIOD":"95.438","MEAN_ANOMALY":"326.9776","ELEMENT_SET_NO":"999","CENTER_NAME":"EARTH","EPHEMERIS_TYPE":"0","ECCENTRICITY":"0.00024590","RA_OF_ASC_NODE":"9.5831","RCS_SIZE":"LARGE","MEAN_ELEMENT_THEORY":"SGP4","TLE_LINE1":"1 51733U 22016V   22315.55624718  .00003752  00000-0  25373-3 0  9991","OBJECT_NAME":"STARLINK-3525"},{"LAUNCH_DATE":"2022-02-21","MEAN_MOTION_DOT":"0.00002740","REV_AT_EPOCH":"4031","TLE_LINE2":"2 51734  53.2184   8.1826 0002268  27.9863 332.1250 15.08822486 40311","REF_FRAME":"TEME","CLASSIFICATION_TYPE":"U","SEMIMAJOR_AXIS":"6917.934","MEAN_MOTION_DDOT":"0.0000000000000","EPOCH":"2022-11-11T20:51:24.832224","SITE":"AFETR","APOAPSIS":"541.368","ARG_OF_PERICENTER":"27.9863","OBJECT_ID":"2022-016W","OBJECT_TYPE":"PAYLOAD","BSTAR":"0.00019031000000","FILE":"3651775","MEAN_MOTION":"15.08822486","PERIAPSIS":"538.230","TIME_SYSTEM":"UTC","COUNTRY_CODE":"US","INCLINATION":"53.2184","DECAY_DATE":null,"NORAD_CAT_ID":"51734","GP_ID":"217493310","EPHEMERIS_TYPE":"0","CENTER_NAME":"EARTH","ELEMENT_SET_NO":"999","MEAN_ANOMALY":"332.1250","PERIOD":"95.439","OBJECT_NAME":"STARLINK-3450","MEAN_ELEMENT_THEORY":"SGP4","TLE_LINE1":"1 51734U 22016W   22315.86903741  .00002740  00000-0  19031-3 0  9992","RCS_SIZE":"LARGE","RA_OF_ASC_NODE":"8.1826","ECCENTRICITY":"0.00022680"},{"TLE_LINE2":"2 51735  53.2168   8.1523 0002133  37.9376 322.1766 15.08830807 40327","REV_AT_EPOCH":"4032","LAUNCH_DATE":"2022-02-21","MEAN_MOTION_DOT":"0.00003733","OBJECT_TYPE":"PAYLOAD","OBJECT_ID":"2022-016X","ARG_OF_PERICENTER":"37.9376","SITE":"AFETR","APOAPSIS":"541.249","MEAN_MOTION_DDOT":"0.0000000000000","SEMIMAJOR_AXIS":"6917.908","EPOCH":"2022-11-11T21:02:02.408928","REF_FRAME":"TEME","CLASSIFICATION_TYPE":"U","GP_ID":"217494028","NORAD_CAT_ID":"51735","COUNTRY_CODE":"US","DECAY_DATE":null,"INCLINATION":"53.2168","MEAN_MOTION":"15.08830807","PERIAPSIS":"538.298","TIME_SYSTEM":"UTC","FILE":"3651775","BSTAR":"0.00025259000000","RCS_SIZE":"LARGE","RA_OF_ASC_NODE":"8.1523","ECCENTRICITY":"0.00021330","OBJECT_NAME":"STARLINK-3517","MEAN_ELEMENT_THEORY":"SGP4","TLE_LINE1":"1 51735U 22016X   22315.87641677  .00003733  00000-0  25259-3 0  9993","ELEMENT_SET_NO":"999","PERIOD":"95.438","MEAN_ANOMALY":"322.1766","EPHEMERIS_TYPE":"0","CENTER_NAME":"EARTH"},{"REF_FRAME":"TEME","CLASSIFICATION_TYPE":"U","SEMIMAJOR_AXIS":"6917.841","MEAN_MOTION_DDOT":"0.0000000000000","EPOCH":"2022-11-11T12:43:54.282432","SITE":"AFETR","APOAPSIS":"541.390","ARG_OF_PERICENTER":"33.0463","OBJECT_ID":"2022-016Y","OBJECT_TYPE":"PAYLOAD","LAUNCH_DATE":"2022-02-21","MEAN_MOTION_DOT":"0.00024001","REV_AT_EPOCH":"4026","TLE_LINE2":"2 51736  53.2174   9.6884 0002434  33.0463 327.0681 15.08852739 40260","CENTER_NAME":"EARTH","EPHEMERIS_TYPE":"0","ELEMENT_SET_NO":"999","MEAN_ANOMALY":"327.0681","PERIOD":"95.437","OBJECT_NAME":"STARLINK-3447","TLE_LINE1":"1 51736U 22016Y   22315.53048938  .00024001  00000-0  15204-2 0  9997","MEAN_ELEMENT_THEORY":"SGP4","RCS_SIZE":"LARGE","RA_OF_ASC_NODE":"9.6884","ECCENTRICITY":"0.00024340","FILE":"3651496","BSTAR":"0.00152040000000","MEAN_MOTION":"15.08852739","PERIAPSIS":"538.023","TIME_SYSTEM":"UTC","COUNTRY_CODE":"US","INCLINATION":"53.2174","DECAY_DATE":null,"NORAD_CAT_ID":"51736","GP_ID":"217435992"},{"MEAN_MOTION_DOT":"0.00001131","LAUNCH_DATE":"2022-02-21","REV_AT_EPOCH":"4031","TLE_LINE2":"2 51737  53.2193   8.1550 0002244  35.4160 324.6981 15.08829147 40314","CLASSIFICATION_TYPE":"U","REF_FRAME":"TEME","EPOCH":"2022-11-11T20:56:44.151072","SEMIMAJOR_AXIS":"6917.914","MEAN_MOTION_DDOT":"0.0000000000000","APOAPSIS":"541.331","SITE":"AFETR","OBJECT_ID":"2022-016Z","ARG_OF_PERICENTER":"35.4160","OBJECT_TYPE":"PAYLOAD","FILE":"3651775","BSTAR":"0.00008919900000","PERIAPSIS":"538.226","TIME_SYSTEM":"UTC","MEAN_MOTION":"15.08829147","DECAY_DATE":null,"INCLINATION":"53.2193","COUNTRY_CODE":"US","NORAD_CAT_ID":"51737","GP_ID":"217493054","EPHEMERIS_TYPE":"0","CENTER_NAME":"EARTH","MEAN_ANOMALY":"324.6981","PERIOD":"95.438","ELEMENT_SET_NO":"999","MEAN_ELEMENT_THEORY":"SGP4","TLE_LINE1":"1 51737U 22016Z   22315.87273323  .00001131  00000-0  89199-4 0  9998","OBJECT_NAME":"STARLINK-3509","RA_OF_ASC_NODE":"8.1550","ECCENTRICITY":"0.00022440","RCS_SIZE":"LARGE"}];
